[{"OBJECT_NAME":"STARLINK-36093","OBJECT_ID":"2025-293N","EPOCH":"2026-03-09T18:58:54.198912","MEAN_MOTION":14.98318168,"ECCENTRICITY":0.0002859,"INCLINATION":70.0017,"RA_OF_ASC_NODE":94.1738,"ARG_OF_PERICENTER":269.9344,"MEAN_ANOMALY":90.1487,"EPHEMERIS_TYPE":0,"CLASSIFICATION_TYPE":"U","NORAD_CAT_ID":67015,"ELEMENT_SET_NO":999,"REV_AT_EPOCH":1490,"BSTAR":-0.00042485433,"MEAN_MOTION_DOT":-5.157e-5,"MEAN_MOTION_DDOT":0},{"OBJECT_NAME":"ATLAS 28E DEB","OBJECT_ID":"1990-031F","EPOCH":"2026-03-09T23:20:22.354944","MEAN_MOTION":14.8907054,"ECCENTRICITY":0.00492653,"INCLINATION":89.9045,"RA_OF_ASC_NODE":245.9973,"ARG_OF_PERICENTER":224.0293,"MEAN_ANOMALY":135.7008,"EPHEMERIS_TYPE":0,"CLASSIFICATION_TYPE":"U","NORAD_CAT_ID":20565,"ELEMENT_SET_NO":999,"REV_AT_EPOCH":36885,"BSTAR":0.00032450895,"MEAN_MOTION_DOT":3.143e-5,"MEAN_MOTION_DDOT":0}]
